HULIANWANG DIGUI 14H    
1 66922U 25285H   25343.50097100 -.00000166  00000+0 -80754-5 0  9999
2 66922  50.0078 130.4835 0006915 290.3386  69.6776 14.05997664   454
HULIANWANG DIGUI 14J    
1 66923U 25285J   25343.57191065 -.00000139  00000+0  83052-5 0  9995
2 66923  50.0088 130.1929 0005380 285.1968  74.8342 14.06054098   464
CZ-8A R/B               
1 66924U 25285K   25343.65738890 -.00000052  00000+0  40636-4 0  9992
2 66924  50.0062 129.2750 0119335  95.8648 265.5885 14.30499445   484
